{
"type": "FeatureCollection",
"name": "farmers_markets_dc",
"crs": { "type": "name", "properties": { "name": "urn:ogc:def:crs:OGC:1.3:CRS84" } },
"features": [
{ "type": "Feature", "properties": { "id": "311197", "name": "14 & U Farmers' Market", "category": "Farmers market", "snap_status": "SNAP status not listed", "address": "14th St. and U St. NW, In front of the Reeves Center, Washington, DC, 20009", "market_type": "", "location_desc": "", "accepted_payment": "", "nutrition_programs": "", "source": "USDA Farmers Market Directory" }, "geometry": { "type": "Point", "coordinates": [ -77.031950027231105, 38.917000004517377 ] } },
{ "type": "Feature", "properties": { "id": "311199", "name": "14 and U Market NW Farmers' Market", "category": "Farmers market", "snap_status": "SNAP status not listed", "address": "14th & U Streets NW Washington, DC 20009", "market_type": "", "location_desc": "", "accepted_payment": "", "nutrition_programs": "", "source": "USDA Farmers Market Directory" }, "geometry": { "type": "Point", "coordinates": [ -77.031950027231105, 38.917000004517377 ] } },
{ "type": "Feature", "properties": { "id": "311198", "name": "14&U Farmers' Market", "category": "Farmers market", "snap_status": "SNAP status not listed", "address": "2000 14 ST NW, Washington, DC, 20010", "market_type": "", "location_desc": "", "accepted_payment": "", "nutrition_programs": "", "source": "USDA Farmers Market Directory" }, "geometry": { "type": "Point", "coordinates": [ -77.031957219663852, 38.917089151767478 ] } },
{ "type": "Feature", "properties": { "id": "311200", "name": "14th & Kennedy Farmers' Market", "category": "Farmers market", "snap_status": "SNAP status not listed", "address": "14th & Kennedy St. NW, Washington, DC, 20011", "market_type": "", "location_desc": "", "accepted_payment": "", "nutrition_programs": "", "source": "USDA Farmers Market Directory" }, "geometry": { "type": "Point", "coordinates": [ -77.033430019874785, 38.956199986374088 ] } },
{ "type": "Feature", "properties": { "id": "311201", "name": "Adams Morgan Farmers Market", "category": "Farmers market", "snap_status": "SNAP status not listed", "address": "18th St. and Columbia Rd. NW, Washington, DC, 20009", "market_type": "", "location_desc": "", "accepted_payment": "", "nutrition_programs": "", "source": "USDA Farmers Market Directory" }, "geometry": { "type": "Point", "coordinates": [ -77.042650029548753, 38.922669984829923 ] } },
{ "type": "Feature", "properties": { "id": "311202", "name": "Anacostia Farmers Market", "category": "Farmers market", "snap_status": "SNAP status not listed", "address": "14th Street between U & V Streets SE Washington, DC 20020", "market_type": "", "location_desc": "", "accepted_payment": "", "nutrition_programs": "", "source": "USDA Farmers Market Directory" }, "geometry": { "type": "Point", "coordinates": [ -76.985600030508635, 38.865029983625305 ] } },
{ "type": "Feature", "properties": { "id": "311203", "name": "Arcadia Mobile Market", "category": "Farmers market", "snap_status": "SNAP status not listed", "address": "1310 Southern Ave. SE, Washington, DC, 20032", "market_type": "", "location_desc": "", "accepted_payment": "", "nutrition_programs": "", "source": "USDA Farmers Market Directory" }, "geometry": { "type": "Point", "coordinates": [ -76.98398823259015, 38.834722091062289 ] } },
{ "type": "Feature", "properties": { "id": "311204", "name": "Aya Community Markets", "category": "Farmers market", "snap_status": "SNAP status not listed", "address": "3924 Minnesota Ave. NE, Unity Health Care, Washington, DC, 20019", "market_type": "", "location_desc": "", "accepted_payment": "", "nutrition_programs": "", "source": "USDA Farmers Market Directory" }, "geometry": { "type": "Point", "coordinates": [ -76.950231294479408, 38.893693670996974 ] } },
{ "type": "Feature", "properties": { "id": "311205", "name": "Bloomingdale Farmers' Market", "category": "Farmers market", "snap_status": "SNAP status not listed", "address": "1st & R Streets, NW Washington, DC 20001", "market_type": "", "location_desc": "", "accepted_payment": "", "nutrition_programs": "", "source": "USDA Farmers Market Directory" }, "geometry": { "type": "Point", "coordinates": [ -77.012160018557751, 38.912609982729244 ] } },
{ "type": "Feature", "properties": { "id": "311206", "name": "Broad Branch (Chevy Chase) Farmers' Market", "category": "Farmers market", "snap_status": "SNAP status not listed", "address": "5701 Broad Branch Rd. NW, Washington, DC, 20015", "market_type": "", "location_desc": "", "accepted_payment": "", "nutrition_programs": "", "source": "USDA Farmers Market Directory" }, "geometry": { "type": "Point", "coordinates": [ -77.068433324972816, 38.965888465090998 ] } },
{ "type": "Feature", "properties": { "id": "311207", "name": "Brookland Farmers' Market", "category": "Farmers market", "snap_status": "SNAP status not listed", "address": "10th St. & Otis St. NE, Washington, DC, 20017", "market_type": "", "location_desc": "", "accepted_payment": "", "nutrition_programs": "", "source": "USDA Farmers Market Directory" }, "geometry": { "type": "Point", "coordinates": [ -76.992790027052536, 38.934430004532658 ] } },
{ "type": "Feature", "properties": { "id": "311208", "name": "Burleith Glover Park Farmers Market", "category": "Farmers market", "snap_status": "SNAP status not listed", "address": "3700 Whitehaven Parkway NW Washington, DC 20007", "market_type": "", "location_desc": "", "accepted_payment": "", "nutrition_programs": "", "source": "USDA Farmers Market Directory" }, "geometry": { "type": "Point", "coordinates": [ -77.072786362171598, 38.916462719133456 ] } },
{ "type": "Feature", "properties": { "id": "311209", "name": "Capital Harvest Farmers' Market", "category": "Farmers market", "snap_status": "SNAP status not listed", "address": "1300 Pennsylvania Ave. NW, Ronal Regan Building and International Trade Center, Washington, DC, 20229", "market_type": "", "location_desc": "", "accepted_payment": "", "nutrition_programs": "", "source": "USDA Farmers Market Directory" }, "geometry": { "type": "Point", "coordinates": [ -77.02972092891612, 38.895463804815087 ] } },
{ "type": "Feature", "properties": { "id": "311210", "name": "Chevy Chase Farmers Market", "category": "Farmers market", "snap_status": "SNAP status not listed", "address": "5700 Broad Branch Road Washington, DC 20015", "market_type": "", "location_desc": "", "accepted_payment": "", "nutrition_programs": "", "source": "USDA Farmers Market Directory" }, "geometry": { "type": "Point", "coordinates": [ -77.068446611032513, 38.965884789501999 ] } },
{ "type": "Feature", "properties": { "id": "311211", "name": "City Center DC Freshfarm Market", "category": "Farmers market", "snap_status": "SNAP status not listed", "address": "I Street NW and 10th St., between 10th and 11th St., Washington, DC, 20001", "market_type": "", "location_desc": "", "accepted_payment": "", "nutrition_programs": "", "source": "USDA Farmers Market Directory" }, "geometry": { "type": "Point", "coordinates": [ -77.02598001669439, 38.900850004936046 ] } },
{ "type": "Feature", "properties": { "id": "301006", "name": "Cleveland Park Farmers Market", "category": "Farmers market", "snap_status": "Accepts SNAP/EBT", "address": "3400 Connecticut Ave NW, Washington, DC 20008, Washington , District of Columbia 20008", "market_type": "", "location_desc": "Market is situated on the western side of Connecticut Avenue's 3400 block, under the historic Uptown Theatre marquee.", "accepted_payment": "Debit card/Credit card;", "nutrition_programs": "SNAP;Some/all market vendors will accept EBT through individual POS;;", "source": "USDA Farmers Market Directory" }, "geometry": { "type": "Point", "coordinates": [ -77.058379, 38.934817 ] } },
{ "type": "Feature", "properties": { "id": "311212", "name": "Cleveland Park Farmers Market", "category": "Farmers market", "snap_status": "SNAP status not listed", "address": "3400 Connecticut Ave NW, Washington, DC 20008, Washington , District of Columbia 20008", "market_type": "", "location_desc": "", "accepted_payment": "", "nutrition_programs": "", "source": "USDA Farmers Market Directory" }, "geometry": { "type": "Point", "coordinates": [ -77.05772005994065, 38.934201193641776 ] } },
{ "type": "Feature", "properties": { "id": "311213", "name": "Columbia Heights Community Marketplace", "category": "Farmers market", "snap_status": "SNAP status not listed", "address": "14th St. and Park Rd. NW, Washington, DC, 20010", "market_type": "", "location_desc": "", "accepted_payment": "", "nutrition_programs": "", "source": "USDA Farmers Market Directory" }, "geometry": { "type": "Point", "coordinates": [ -77.032749996070166, 38.930230000489502 ] } },
{ "type": "Feature", "properties": { "id": "311214", "name": "Community Foodworks-Reston Farmers Market", "category": "Farmers market", "snap_status": "SNAP status not listed", "address": "1380 Monroe Street NW #605 WASHINGTON, DC 20010", "market_type": "", "location_desc": "", "accepted_payment": "", "nutrition_programs": "", "source": "USDA Farmers Market Directory" }, "geometry": { "type": "Point", "coordinates": [ -77.032146426191503, 38.931529542759087 ] } },
{ "type": "Feature", "properties": { "id": "311215", "name": "D.C. Open-Air Farmers' Market at...", "category": "Farmers market", "snap_status": "SNAP status not listed", "address": "Benning Rd. & Oklahoma Ave. NE, Parking Lot No. 6, Washington, DC, 20002", "market_type": "", "location_desc": "", "accepted_payment": "", "nutrition_programs": "", "source": "USDA Farmers Market Directory" }, "geometry": { "type": "Point", "coordinates": [ -76.969539968748364, 38.897650003851226 ] } },
{ "type": "Feature", "properties": { "id": "311216", "name": "DC Farmers Market", "category": "Farmers market", "snap_status": "SNAP status not listed", "address": "1309 5th Street, NE Washington, DC 20002", "market_type": "", "location_desc": "", "accepted_payment": "", "nutrition_programs": "", "source": "USDA Farmers Market Directory" }, "geometry": { "type": "Point", "coordinates": [ -76.997911104281243, 38.908873217154166 ] } },
{ "type": "Feature", "properties": { "id": "311217", "name": "Dupont Circle Freshfarm Market", "category": "Farmers market", "snap_status": "SNAP status not listed", "address": "1560 20th St. NW, Washington, DC, 20036", "market_type": "", "location_desc": "", "accepted_payment": "", "nutrition_programs": "", "source": "USDA Farmers Market Directory" }, "geometry": { "type": "Point", "coordinates": [ -77.044889196581579, 38.910727432662846 ] } },
{ "type": "Feature", "properties": { "id": "311218", "name": "Eastern Market", "category": "Farmers market", "snap_status": "SNAP status not listed", "address": "225 7th St. SE, Washington, DC, 20003", "market_type": "", "location_desc": "", "accepted_payment": "", "nutrition_programs": "", "source": "USDA Farmers Market Directory" }, "geometry": { "type": "Point", "coordinates": [ -76.996196298738127, 38.887001954045203 ] } },
{ "type": "Feature", "properties": { "id": "311221", "name": "FRESHFARM Columbia Heights (Saturday)", "category": "Farmers market", "snap_status": "SNAP status not listed", "address": "Park Rd NW & 14th St NW, Washington, DC 20010, USA", "market_type": "", "location_desc": "", "accepted_payment": "", "nutrition_programs": "", "source": "USDA Farmers Market Directory" }, "geometry": { "type": "Point", "coordinates": [ -77.032749996070166, 38.930230000489502 ] } },
{ "type": "Feature", "properties": { "id": "301697", "name": "FRESHFARM Columbia Heights (Saturday) ", "category": "Farmers market", "snap_status": "SNAP status not listed", "address": "Park Rd NW & 14th St NW, Washington, DC 20010, USA", "market_type": "Civic Plaza", "location_desc": "", "accepted_payment": "", "nutrition_programs": "", "source": "USDA Farmers Market Directory" }, "geometry": { "type": "Point", "coordinates": [ -77.0327462, 38.9302925 ] } },
{ "type": "Feature", "properties": { "id": "301699", "name": "FRESHFARM Dupont Circle (Sunday)", "category": "Farmers market", "snap_status": "SNAP status not listed", "address": "1600 20th St NW, Washington, DC 20009, USA", "market_type": "", "location_desc": "20th Street NW between Massachusetts & Connecticut Avenues_x000d_\n_x000d_\n", "accepted_payment": "", "nutrition_programs": "", "source": "USDA Farmers Market Directory" }, "geometry": { "type": "Point", "coordinates": [ -77.045201, 38.911292499999988 ] } },
{ "type": "Feature", "properties": { "id": "311222", "name": "FRESHFARM Dupont Circle (Sunday)", "category": "Farmers market", "snap_status": "SNAP status not listed", "address": "1600 20th St NW, Washington, DC 20009, USA", "market_type": "", "location_desc": "", "accepted_payment": "", "nutrition_programs": "", "source": "USDA Farmers Market Directory" }, "geometry": { "type": "Point", "coordinates": [ -77.044891197234634, 38.911186657878019 ] } },
{ "type": "Feature", "properties": { "id": "300575", "name": "FRESHFARM Dupont Market", "category": "Farmers market", "snap_status": "Accepts SNAP/EBT", "address": "1624 20th St NW , Washington, District of Columbia 20009", "market_type": "Closed-off public street;", "location_desc": "20th Street NW between Massachusetts Avenue and Hillyer Place", "accepted_payment": "Debit card/Credit card;", "nutrition_programs": "WIC;Senior Farmers Market Nutrition Program;SNAP;Accept EBT at a central location;;", "source": "USDA Farmers Market Directory" }, "geometry": { "type": "Point", "coordinates": [ -77.044967, 38.911806 ] } },
{ "type": "Feature", "properties": { "id": "311223", "name": "FRESHFARM Dupont Market", "category": "Farmers market", "snap_status": "SNAP status not listed", "address": "1624 20th St NW , Washington, District of Columbia 20009", "market_type": "", "location_desc": "", "accepted_payment": "", "nutrition_programs": "", "source": "USDA Farmers Market Directory" }, "geometry": { "type": "Point", "coordinates": [ -77.044886010996393, 38.911339651906133 ] } },
{ "type": "Feature", "properties": { "id": "301701", "name": "FRESHFARM Foggy Bottom", "category": "Farmers market", "snap_status": "SNAP status not listed", "address": "901 23rd St NW, Washington, DC 20052, USA", "market_type": "On I Street NW, between 23rd and 24th Streets", "location_desc": "", "accepted_payment": "", "nutrition_programs": "", "source": "USDA Farmers Market Directory" }, "geometry": { "type": "Point", "coordinates": [ -77.0505776, 38.9004805 ] } },
{ "type": "Feature", "properties": { "id": "311224", "name": "FRESHFARM Foggy Bottom", "category": "Farmers market", "snap_status": "SNAP status not listed", "address": "901 23rd St NW, Washington, DC 20052, USA", "market_type": "", "location_desc": "", "accepted_payment": "", "nutrition_programs": "", "source": "USDA Farmers Market Directory" }, "geometry": { "type": "Point", "coordinates": [ -77.050121059527768, 38.900802438999541 ] } },
{ "type": "Feature", "properties": { "id": "301702", "name": "FRESHFARM H St NE", "category": "Farmers market", "snap_status": "SNAP status not listed", "address": "800 13th St NE, Washington, DC 20002, USA", "market_type": "Closed-off public street;", "location_desc": "On 13th Street NE between H and I Streets_x000d_\n_x000d_\n", "accepted_payment": "", "nutrition_programs": "", "source": "USDA Farmers Market Directory" }, "geometry": { "type": "Point", "coordinates": [ -76.9883903, 38.9007086 ] } },
{ "type": "Feature", "properties": { "id": "311225", "name": "FRESHFARM H St NE", "category": "Farmers market", "snap_status": "SNAP status not listed", "address": "800 13th St NE, Washington, DC 20002, USA", "market_type": "", "location_desc": "", "accepted_payment": "", "nutrition_programs": "", "source": "USDA Farmers Market Directory" }, "geometry": { "type": "Point", "coordinates": [ -76.988313301010223, 38.900249361271847 ] } },
{ "type": "Feature", "properties": { "id": "311228", "name": "FRESHFARM Monroe Street", "category": "Farmers market", "snap_status": "SNAP status not listed", "address": "716 Monroe St NE, Washington, DC 20017, USA", "market_type": "", "location_desc": "", "accepted_payment": "", "nutrition_programs": "", "source": "USDA Farmers Market Directory" }, "geometry": { "type": "Point", "coordinates": [ -76.995913054910162, 38.932373582681009 ] } },
{ "type": "Feature", "properties": { "id": "301705", "name": "FRESHFARM Monroe Street ", "category": "Farmers market", "snap_status": "SNAP status not listed", "address": "716 Monroe St NE, Washington, DC 20017, USA", "market_type": "Arts Walk & Plaza", "location_desc": "", "accepted_payment": "", "nutrition_programs": "", "source": "USDA Farmers Market Directory" }, "geometry": { "type": "Point", "coordinates": [ -76.994985, 38.9323776 ] } },
{ "type": "Feature", "properties": { "id": "301708", "name": "FRESHFARM Mount Vernon Triangle", "category": "Farmers market", "snap_status": "SNAP status not listed", "address": "499 I St NW, Washington, DC 20001, USA", "market_type": "Closed-off public street;", "location_desc": "Next to Milian Park_x000d_\n_x000d_\n", "accepted_payment": "", "nutrition_programs": "", "source": "USDA Farmers Market Directory" }, "geometry": { "type": "Point", "coordinates": [ -77.0190138, 38.901386300000013 ] } },
{ "type": "Feature", "properties": { "id": "311229", "name": "FRESHFARM Mount Vernon Triangle", "category": "Farmers market", "snap_status": "SNAP status not listed", "address": "499 I St NW, Washington, DC 20001, USA", "market_type": "", "location_desc": "", "accepted_payment": "", "nutrition_programs": "", "source": "USDA Farmers Market Directory" }, "geometry": { "type": "Point", "coordinates": [ -77.01882385195556, 38.901328625687121 ] } },
{ "type": "Feature", "properties": { "id": "301711", "name": "FRESHFARM Penn Quarter", "category": "Farmers market", "snap_status": "SNAP status not listed", "address": "801 F St NW Washington, DC 20004", "market_type": "", "location_desc": "On F Street NW, between 7th & 9th Streets_x000d_\n_x000d_\n", "accepted_payment": "", "nutrition_programs": "", "source": "USDA Farmers Market Directory" }, "geometry": { "type": "Point", "coordinates": [ -77.0251511, 38.8974361 ] } },
{ "type": "Feature", "properties": { "id": "311230", "name": "FRESHFARM Penn Quarter", "category": "Farmers market", "snap_status": "SNAP status not listed", "address": "801 F St NW Washington, DC 20004", "market_type": "", "location_desc": "", "accepted_payment": "", "nutrition_programs": "", "source": "USDA Farmers Market Directory" }, "geometry": { "type": "Point", "coordinates": [ -77.023033384098071, 38.897215647917911 ] } },
{ "type": "Feature", "properties": { "id": "311219", "name": "Foggy Bottom Farmers' Market", "category": "Farmers market", "snap_status": "SNAP status not listed", "address": "23rd and I St. NW Walkway , Washington, DC, 20037", "market_type": "", "location_desc": "", "accepted_payment": "", "nutrition_programs": "", "source": "USDA Farmers Market Directory" }, "geometry": { "type": "Point", "coordinates": [ -77.050119981658696, 38.900700010778714 ] } },
{ "type": "Feature", "properties": { "id": "311220", "name": "Forest Hills Row Farmers' Market", "category": "Farmers market", "snap_status": "SNAP status not listed", "address": "Connecticut Ave. & Nebraska Ave., Washington, DC, 20008", "market_type": "", "location_desc": "", "accepted_payment": "", "nutrition_programs": "", "source": "USDA Farmers Market Directory" }, "geometry": { "type": "Point", "coordinates": [ -77.07040997085646, 38.956030001377712 ] } },
{ "type": "Feature", "properties": { "id": "311226", "name": "FreshFarm Market at CityCenterDC", "category": "Farmers market", "snap_status": "SNAP status not listed", "address": "I St. NW & 10th St., Washington, DC, 20268", "market_type": "", "location_desc": "", "accepted_payment": "", "nutrition_programs": "", "source": "USDA Farmers Market Directory" }, "geometry": { "type": "Point", "coordinates": [ -77.02598001669439, 38.900850004936046 ] } },
{ "type": "Feature", "properties": { "id": "311227", "name": "FreshFarm Market by the White House", "category": "Farmers market", "snap_status": "SNAP status not listed", "address": "810 Vermont Ave. NW, Washington, DC, 20420", "market_type": "", "location_desc": "", "accepted_payment": "", "nutrition_programs": "", "source": "USDA Farmers Market Directory" }, "geometry": { "type": "Point", "coordinates": [ -77.035028231016909, 38.900392258862659 ] } },
{ "type": "Feature", "properties": { "id": "311231", "name": "Georgetown Farmers' Market", "category": "Farmers market", "snap_status": "SNAP status not listed", "address": "2600 O Street NW, Washington, DC, 20007", "market_type": "", "location_desc": "", "accepted_payment": "", "nutrition_programs": "", "source": "USDA Farmers Market Directory" }, "geometry": { "type": "Point", "coordinates": [ -77.054819429455108, 38.908552825350647 ] } },
{ "type": "Feature", "properties": { "id": "311232", "name": "Georgetown Market in Rose Park", "category": "Farmers market", "snap_status": "SNAP status not listed", "address": "26th and O St. NW, Washington, DC, 20007", "market_type": "", "location_desc": "", "accepted_payment": "", "nutrition_programs": "", "source": "USDA Farmers Market Directory" }, "geometry": { "type": "Point", "coordinates": [ -77.010379047098709, 38.908563811776951 ] } },
{ "type": "Feature", "properties": { "id": "311233", "name": "Glover Park-Burleith Farmers' Market", "category": "Farmers market", "snap_status": "SNAP status not listed", "address": "1819 35th St. NW, Washington, DC, 20007", "market_type": "", "location_desc": "", "accepted_payment": "", "nutrition_programs": "", "source": "USDA Farmers Market Directory" }, "geometry": { "type": "Point", "coordinates": [ -77.069326572211182, 38.914783204597711 ] } },
{ "type": "Feature", "properties": { "id": "311234", "name": "H Street NE FreshFarm Market", "category": "Farmers market", "snap_status": "SNAP status not listed", "address": "625 H St. NE, Washington, DC, 20002", "market_type": "", "location_desc": "", "accepted_payment": "", "nutrition_programs": "", "source": "USDA Farmers Market Directory" }, "geometry": { "type": "Point", "coordinates": [ -76.997790316705334, 38.900199499437349 ] } },
{ "type": "Feature", "properties": { "id": "314190", "name": "Half Street Central Farm Market", "category": "Farmers market", "snap_status": "Accepts SNAP/EBT", "address": "1250 Half Street Southeast, Washington, DC, USA", "market_type": "Closed-off public street;", "location_desc": "Between M and N Streets SE in front of Nats Park Center Field Gate", "accepted_payment": "Cash;Debit card/Credit card;Google Pay,Apple Pay,Samsung Pay;", "nutrition_programs": "WIC Farmers Market;Senior Farmers Market Nutrition Program;Some/all market vendors will accept EBT through individual POS;;Other food and nutrition assistance programs, supplemental coupons, and vouchers;", "source": "USDA Farmers Market Directory" }, "geometry": { "type": "Point", "coordinates": [ -77.007002, 38.875224 ] } },
{ "type": "Feature", "properties": { "id": "311235", "name": "Historic Brookland Farmers Market", "category": "Farmers market", "snap_status": "SNAP status not listed", "address": "3420 9th Street NE Washington, DC 20017", "market_type": "", "location_desc": "", "accepted_payment": "", "nutrition_programs": "", "source": "USDA Farmers Market Directory" }, "geometry": { "type": "Point", "coordinates": [ -76.993640009377373, 38.931669631025215 ] } },
{ "type": "Feature", "properties": { "id": "311236", "name": "Historic Brookland Farmers Market - Sunday", "category": "Farmers market", "snap_status": "SNAP status not listed", "address": "Newton St NE Washington, DC 20017", "market_type": "", "location_desc": "", "accepted_payment": "", "nutrition_programs": "", "source": "USDA Farmers Market Directory" }, "geometry": { "type": "Point", "coordinates": [ -76.98798468447329, 38.933680108270181 ] } },
{ "type": "Feature", "properties": { "id": "311237", "name": "Historic Brookland Farmers Market - Tuesday", "category": "Farmers market", "snap_status": "SNAP status not listed", "address": "10th and Otis Streets NE Washington, DC 20017", "market_type": "", "location_desc": "", "accepted_payment": "", "nutrition_programs": "", "source": "USDA Farmers Market Directory" }, "geometry": { "type": "Point", "coordinates": [ -76.992790027052536, 38.934430004532658 ] } },
{ "type": "Feature", "properties": { "id": "300645", "name": "Mount Pleasant Farmers' Market", "category": "Farmers market", "snap_status": "Accepts SNAP/EBT", "address": "3200 Mt. Pleasant St NW , Washington, District of Columbia 20010", "market_type": "Local government building grounds;", "location_desc": "Plaza", "accepted_payment": "Debit card/Credit card;", "nutrition_programs": "WIC Farmers Market;WIC;Senior Farmers Market Nutrition Program;SNAP;Accept EBT at a central location;;", "source": "USDA Farmers Market Directory" }, "geometry": { "type": "Point", "coordinates": [ -77.038675, 38.931518 ] } },
{ "type": "Feature", "properties": { "id": "311238", "name": "Mount Pleasant Farmers' Market", "category": "Farmers market", "snap_status": "SNAP status not listed", "address": "3200 Mt. Pleasant St NW , Washington, District of Columbia 20010", "market_type": "", "location_desc": "", "accepted_payment": "", "nutrition_programs": "", "source": "USDA Farmers Market Directory" }, "geometry": { "type": "Point", "coordinates": [ -77.038362865777401, 38.931260747750621 ] } },
{ "type": "Feature", "properties": { "id": "311239", "name": "Mount Vernon Triangle FreshFarm Market", "category": "Farmers market", "snap_status": "SNAP status not listed", "address": "5th St. & K St. NW, Mount Vernon Triangle, Washington, DC, 20001", "market_type": "", "location_desc": "", "accepted_payment": "", "nutrition_programs": "", "source": "USDA Farmers Market Directory" }, "geometry": { "type": "Point", "coordinates": [ -77.018929997933526, 38.902520015324711 ] } },
{ "type": "Feature", "properties": { "id": "311240", "name": "New Morning Farmers Market (Saturday)", "category": "Farmers market", "snap_status": "SNAP status not listed", "address": "36th Street & Alton Place NW (Sheridan School) Washington, DC 20008", "market_type": "", "location_desc": "", "accepted_payment": "", "nutrition_programs": "", "source": "USDA Farmers Market Directory" }, "geometry": { "type": "Point", "coordinates": [ -77.069800019762383, 38.947089989179318 ] } },
{ "type": "Feature", "properties": { "id": "311241", "name": "NoMa Farmers Market", "category": "Farmers market", "snap_status": "SNAP status not listed", "address": "1325 Second Street, NE, Washington, DC, 20011", "market_type": "", "location_desc": "", "accepted_payment": "", "nutrition_programs": "", "source": "USDA Farmers Market Directory" }, "geometry": { "type": "Point", "coordinates": [ -77.003482325850058, 38.907588868562001 ] } },
{ "type": "Feature", "properties": { "id": "314271", "name": "NoMa Farmers Market on Third Street", "category": "Farmers market", "snap_status": "SNAP status not listed", "address": "1225 3rd Street Northeast, Washington, DC, USA", "market_type": "Closed-off public street;", "location_desc": "on Third Street NE between M and N Streets", "accepted_payment": "Cash;Debit card/Credit card;", "nutrition_programs": "", "source": "USDA Farmers Market Directory" }, "geometry": { "type": "Point", "coordinates": [ -77.0018645, 38.9066379 ] } },
{ "type": "Feature", "properties": { "id": "311242", "name": "Open Air Farmers Market", "category": "Farmers market", "snap_status": "SNAP status not listed", "address": "Oklahoma Ave. and Benning Rd., NE, Washington, DC, 20020", "market_type": "", "location_desc": "", "accepted_payment": "", "nutrition_programs": "", "source": "USDA Farmers Market Directory" }, "geometry": { "type": "Point", "coordinates": [ -76.969539968748364, 38.897650003851226 ] } },
{ "type": "Feature", "properties": { "id": "311244", "name": "PCDC Edgewood Farmers Market", "category": "Farmers market", "snap_status": "SNAP status not listed", "address": "680 Rhode Island, Washington, DC, 20002", "market_type": "", "location_desc": "", "accepted_payment": "", "nutrition_programs": "", "source": "USDA Farmers Market Directory" }, "geometry": { "type": "Point", "coordinates": [ -76.996862123253223, 38.921354528945557 ] } },
{ "type": "Feature", "properties": { "id": "311243", "name": "Palisades Farmers Market", "category": "Farmers market", "snap_status": "SNAP status not listed", "address": "48th Place NW at MacArthur Blvd, Washington, DC, 20007", "market_type": "", "location_desc": "", "accepted_payment": "", "nutrition_programs": "", "source": "USDA Farmers Market Directory" }, "geometry": { "type": "Point", "coordinates": [ -77.096580032769864, 38.917490010577012 ] } },
{ "type": "Feature", "properties": { "id": "311245", "name": "Penn Quarter FreshFarm Market", "category": "Farmers market", "snap_status": "SNAP status not listed", "address": "450 8th St. NW, Washington, DC, 20004", "market_type": "", "location_desc": "", "accepted_payment": "", "nutrition_programs": "", "source": "USDA Farmers Market Directory" }, "geometry": { "type": "Point", "coordinates": [ -77.022966658800968, 38.895467587594382 ] } },
{ "type": "Feature", "properties": { "id": "311246", "name": "Petworth Community Market", "category": "Farmers market", "snap_status": "SNAP status not listed", "address": "4100 Block 9th St NW, Washington, DC, 20011", "market_type": "", "location_desc": "", "accepted_payment": "", "nutrition_programs": "", "source": "USDA Farmers Market Directory" }, "geometry": { "type": "Point", "coordinates": [ -77.025027059156983, 38.940900261072613 ] } },
{ "type": "Feature", "properties": { "id": "311247", "name": "RFK Stadium Open Air Market", "category": "Farmers market", "snap_status": "SNAP status not listed", "address": "2700 Benning Road NE Washington, DC 20002", "market_type": "", "location_desc": "", "accepted_payment": "", "nutrition_programs": "", "source": "USDA Farmers Market Directory" }, "geometry": { "type": "Point", "coordinates": [ -76.963601348434324, 38.897271089912088 ] } },
{ "type": "Feature", "properties": { "id": "311248", "name": "Riverside Heritage Park Farmers' Market", "category": "Farmers market", "snap_status": "SNAP status not listed", "address": "601 Division Avenue NE Washington, DC 20019", "market_type": "", "location_desc": "", "accepted_payment": "", "nutrition_programs": "", "source": "USDA Farmers Market Directory" }, "geometry": { "type": "Point", "coordinates": [ -76.925875303870669, 38.897767824487232 ] } },
{ "type": "Feature", "properties": { "id": "311249", "name": "Stanton & Turner Open Air Farmers Market", "category": "Farmers market", "snap_status": "SNAP status not listed", "address": "Stanton and Alabama Avenue SE, Washington, DC, 20020", "market_type": "", "location_desc": "", "accepted_payment": "", "nutrition_programs": "", "source": "USDA Farmers Market Directory" }, "geometry": { "type": "Point", "coordinates": [ -76.975189958221833, 38.850740012177617 ] } },
{ "type": "Feature", "properties": { "id": "311250", "name": "Tenley Town Farmers Market @ Whole Foods Market", "category": "Farmers market", "snap_status": "SNAP status not listed", "address": "4530 40th st, NW washington, DC 20016", "market_type": "", "location_desc": "", "accepted_payment": "", "nutrition_programs": "", "source": "USDA Farmers Market Directory" }, "geometry": { "type": "Point", "coordinates": [ -77.078754042280991, 38.948504019728801 ] } },
{ "type": "Feature", "properties": { "id": "311251", "name": "The Marketplace in Woodrige", "category": "Farmers market", "snap_status": "SNAP status not listed", "address": "3001 Bladensburg Road, NE, Washington, DC", "market_type": "", "location_desc": "", "accepted_payment": "", "nutrition_programs": "", "source": "USDA Farmers Market Directory" }, "geometry": { "type": "Point", "coordinates": [ -76.961319872205365, 38.928217931411176 ] } },
{ "type": "Feature", "properties": { "id": "311253", "name": "UDC Farmers Market", "category": "Farmers market", "snap_status": "SNAP status not listed", "address": "4200 Connecticut Ave., NW, Washington, DC, 20008", "market_type": "", "location_desc": "", "accepted_payment": "", "nutrition_programs": "", "source": "USDA Farmers Market Directory" }, "geometry": { "type": "Point", "coordinates": [ -77.063621887070809, 38.944351303835411 ] } },
{ "type": "Feature", "properties": { "id": "311255", "name": "US Dept of Health & Human Services FRESHFARM Market", "category": "Farmers market", "snap_status": "SNAP status not listed", "address": "200 Independence Avenue, SW, Washington, DC, 20201", "market_type": "", "location_desc": "", "accepted_payment": "", "nutrition_programs": "", "source": "USDA Farmers Market Directory" }, "geometry": { "type": "Point", "coordinates": [ -77.014150755489069, 38.887560973608949 ] } },
{ "type": "Feature", "properties": { "id": "300192", "name": "USDA Farmers Market", "category": "Farmers market", "snap_status": "Accepts SNAP/EBT", "address": "Corner 12th St. & Independence Ave. SW, Washington, District of Columbia 20250", "market_type": "Federal/state government building grounds;", "location_desc": "Parking lot across from the Smithsonian Metro Station", "accepted_payment": "Debit card/Credit card;", "nutrition_programs": "SNAP;Accept EBT at a central location;;", "source": "USDA Farmers Market Directory" }, "geometry": { "type": "Point", "coordinates": [ -77.028494, 38.887743 ] } },
{ "type": "Feature", "properties": { "id": "311252", "name": "USDA Farmers Market at Dept. of Transportation", "category": "Farmers market", "snap_status": "SNAP status not listed", "address": "400 7th Street SW (plaza level) Washington, DC 20590", "market_type": "", "location_desc": "", "accepted_payment": "", "nutrition_programs": "", "source": "USDA Farmers Market Directory" }, "geometry": { "type": "Point", "coordinates": [ -77.021836490721086, 38.884713000495154 ] } },
{ "type": "Feature", "properties": { "id": "311254", "name": "Union Market", "category": "Farmers market", "snap_status": "SNAP status not listed", "address": "1309 5th St. NE, Washington, DC, 20002", "market_type": "", "location_desc": "", "accepted_payment": "", "nutrition_programs": "", "source": "USDA Farmers Market Directory" }, "geometry": { "type": "Point", "coordinates": [ -76.997911104281243, 38.908873217154166 ] } },
{ "type": "Feature", "properties": { "id": "311256", "name": "Ward 8 Farmers Market", "category": "Farmers market", "snap_status": "SNAP status not listed", "address": "1901 Mississippi Ave. SE, Washington, DC, 20020", "market_type": "", "location_desc": "", "accepted_payment": "", "nutrition_programs": "", "source": "USDA Farmers Market Directory" }, "geometry": { "type": "Point", "coordinates": [ -76.991835826532977, 38.839079558902931 ] } },
{ "type": "Feature", "properties": { "id": "311257", "name": "Ward 8 Farmers Market at St. Elizabeth's Hopital East", "category": "Farmers market", "snap_status": "SNAP status not listed", "address": "2700 Martin Luther King Jr. Avenue, SE, Washington, DC, 20024", "market_type": "", "location_desc": "", "accepted_payment": "", "nutrition_programs": "", "source": "USDA Farmers Market Directory" }, "geometry": { "type": "Point", "coordinates": [ -76.994730856732801, 38.850692067691455 ] } }
]
}
